ONEWEB-0125             
1 47271U 20100P   26037.96153896 -.00000414  00000+0 -11862-2 0  9999
2 47271  87.8960  16.4985 0001958  76.6138 283.5208 13.12441846247553
ONEWEB-0126             
1 47272U 20100Q   26037.98201647 -.00000011  00000+0 -66740-4 0  9990
2 47272  87.8952  16.5167 0001891  88.2631 271.8714 13.12444462247628
ONEWEB-0127             
1 47273U 20100R   26037.94799562 -.00000103  00000+0 -32251-3 0  9996
2 47273  87.8947  16.5304 0001841  88.2823 271.8516 13.12442685247641
ONEWEB-0128             
1 47274U 20100S   26037.97000741 -.00000345  00000+0 -99393-3 0  9992
2 47274  87.8946  16.5410 0001504  86.0168 274.1132 13.12444204247664
ONEWEB-0129             
1 47275U 20100T   26037.94967848 -.00000151  00000+0 -45598-3 0  9993
2 47275  87.8958  16.5056 0002497 109.2359 250.9040 13.12443237247593
ONEWEB-0130             
1 47276U 20100U   26037.97678340 -.00000133  00000+0 -40398-3 0  9996
2 47276  87.8953  16.4937 0001790  88.3899 271.7435 13.12443432247560
ONEWEB-0131             
1 47277U 20100V   26037.97339896 -.00000308  00000+0 -89251-3 0  9992
2 47277  87.8948  16.5250 0001784  85.5996 274.5336 13.12445235247603
ONEWEB-0132             
1 47278U 20100W   26038.30716562  .00000360  00000+0  96450-3 0  9995
2 47278  87.8956  16.4584 0001709  85.3510 274.7813 13.12441157247543
ONEWEB-0133             
1 47279U 20100X   26037.94276701  .00000041  00000+0  77330-4 0  9994
2 47279  87.8958  16.4930 0001637  84.0018 276.1297 13.12441847247650
ONEWEB-0134             
1 47280U 20100Y   26038.29360309  .00000148  00000+0  37606-3 0  9992
2 47280  87.8957  16.4199 0001640  91.0831 269.0486 13.12443260247677
ONEWEB-0135             
1 47281U 20100Z   26037.95984648 -.00000425  00000+0 -12158-2 0  9997
2 47281  87.8954  16.5249 0001533  92.1863 267.9441 13.12443459247656
ONEWEB-0136             
1 47282U 20100AA  26037.97848008 -.00000117  00000+0 -36176-3 0  9994
2 47282  87.8961  16.4925 0001668  97.6797 262.4521 13.12445307247585
ONEWEB-0137             
1 47283U 20100AB  26037.93613521  .00000234  00000+0  61628-3 0  9999
2 47283  87.8956  16.5056 0001926  83.0258 277.1090 13.12441766247482
ONEWEB-0138             
1 47284U 20100AC  26038.29529251  .00000251  00000+0  66361-3 0  9994
2 47284  87.8956  16.4434 0001748  90.8898 269.2431 13.12443330247615
ONEWEB-0139             
1 47285U 20100AD  26037.95490011 -.00000315  00000+0 -91209-3 0  9990
2 47285  87.8952  16.4985 0001802  85.7609 274.3726 13.12442715247640
ONEWEB-0140             
1 47286U 20100AE  26038.29021300  .00000076  00000+0  17678-3 0  9990
2 47286  87.8958  16.4204 0001630  81.4340 278.6973 13.12443735247650
ONEWEB-0141             
1 47287U 20100AF  26037.95462069 -.00000332  00000+0 -95945-3 0  9994
2 47287  87.8954  16.4941 0002113  82.1653 277.9715 13.12443041247596
