[{"OBJECT_NAME":"ONEWEB-0125","OBJECT_ID":"2020-100P","EPOCH":"2026-02-06T23:04:36.966144","MEAN_MOTION":13.12441846,"ECCENTRICITY":0.0001958,"INCLINATION":87.896,"RA_OF_ASC_NODE":16.4985,"ARG_OF_PERICENTER":76.6138,"MEAN_ANOMALY":283.5208,"EPHEMERIS_TYPE":0,"CLASSIFICATION_TYPE":"U","NORAD_CAT_ID":47271,"ELEMENT_SET_NO":999,"REV_AT_EPOCH":24755,"BSTAR":-0.0011862,"MEAN_MOTION_DOT":-4.14e-6,"MEAN_MOTION_DDOT":0},{"OBJECT_NAME":"ONEWEB-0126","OBJECT_ID":"2020-100Q","EPOCH":"2026-02-06T23:34:06.223008","MEAN_MOTION":13.12444462,"ECCENTRICITY":0.0001891,"INCLINATION":87.8952,"RA_OF_ASC_NODE":16.5167,"ARG_OF_PERICENTER":88.2631,"MEAN_ANOMALY":271.8714,"EPHEMERIS_TYPE":0,"CLASSIFICATION_TYPE":"U","NORAD_CAT_ID":47272,"ELEMENT_SET_NO":999,"REV_AT_EPOCH":24762,"BSTAR":-6.674e-5,"MEAN_MOTION_DOT":-1.1e-7,"MEAN_MOTION_DDOT":0},{"OBJECT_NAME":"ONEWEB-0127","OBJECT_ID":"2020-100R","EPOCH":"2026-02-06T22:45:06.821568","MEAN_MOTION":13.12442685,"ECCENTRICITY":0.0001841,"INCLINATION":87.8947,"RA_OF_ASC_NODE":16.5304,"ARG_OF_PERICENTER":88.2823,"MEAN_ANOMALY":271.8516,"EPHEMERIS_TYPE":0,"CLASSIFICATION_TYPE":"U","NORAD_CAT_ID":47273,"ELEMENT_SET_NO":999,"REV_AT_EPOCH":24764,"BSTAR":-0.00032251,"MEAN_MOTION_DOT":-1.03e-6,"MEAN_MOTION_DDOT":0},{"OBJECT_NAME":"ONEWEB-0128","OBJECT_ID":"2020-100S","EPOCH":"2026-02-06T23:16:48.640224","MEAN_MOTION":13.12444204,"ECCENTRICITY":0.0001504,"INCLINATION":87.8946,"RA_OF_ASC_NODE":16.541,"ARG_OF_PERICENTER":86.0168,"MEAN_ANOMALY":274.1132,"EPHEMERIS_TYPE":0,"CLASSIFICATION_TYPE":"U","NORAD_CAT_ID":47274,"ELEMENT_SET_NO":999,"REV_AT_EPOCH":24766,"BSTAR":-0.00099393,"MEAN_MOTION_DOT":-3.45e-6,"MEAN_MOTION_DDOT":0},{"OBJECT_NAME":"ONEWEB-0129","OBJECT_ID":"2020-100T","EPOCH":"2026-02-06T22:47:32.220672","MEAN_MOTION":13.12443237,"ECCENTRICITY":0.0002497,"INCLINATION":87.8958,"RA_OF_ASC_NODE":16.5056,"ARG_OF_PERICENTER":109.2359,"MEAN_ANOMALY":250.904,"EPHEMERIS_TYPE":0,"CLASSIFICATION_TYPE":"U","NORAD_CAT_ID":47275,"ELEMENT_SET_NO":999,"REV_AT_EPOCH":24759,"BSTAR":-0.00045598,"MEAN_MOTION_DOT":-1.51e-6,"MEAN_MOTION_DDOT":0},{"OBJECT_NAME":"ONEWEB-0130","OBJECT_ID":"2020-100U","EPOCH":"2026-02-06T23:26:34.085760","MEAN_MOTION":13.12443432,"ECCENTRICITY":0.000179,"INCLINATION":87.8953,"RA_OF_ASC_NODE":16.4937,"ARG_OF_PERICENTER":88.3899,"MEAN_ANOMALY":271.7435,"EPHEMERIS_TYPE":0,"CLASSIFICATION_TYPE":"U","NORAD_CAT_ID":47276,"ELEMENT_SET_NO":999,"REV_AT_EPOCH":24756,"BSTAR":-0.00040398,"MEAN_MOTION_DOT":-1.33e-6,"MEAN_MOTION_DDOT":0},{"OBJECT_NAME":"ONEWEB-0131","OBJECT_ID":"2020-100V","EPOCH":"2026-02-06T23:21:41.670144","MEAN_MOTION":13.12445235,"ECCENTRICITY":0.0001784,"INCLINATION":87.8948,"RA_OF_ASC_NODE":16.525,"ARG_OF_PERICENTER":85.5996,"MEAN_ANOMALY":274.5336,"EPHEMERIS_TYPE":0,"CLASSIFICATION_TYPE":"U","NORAD_CAT_ID":47277,"ELEMENT_SET_NO":999,"REV_AT_EPOCH":24760,"BSTAR":-0.00089251,"MEAN_MOTION_DOT":-3.08e-6,"MEAN_MOTION_DDOT":0},{"OBJECT_NAME":"ONEWEB-0132","OBJECT_ID":"2020-100W","EPOCH":"2026-02-07T07:22:19.109568","MEAN_MOTION":13.12441157,"ECCENTRICITY":0.0001709,"INCLINATION":87.8956,"RA_OF_ASC_NODE":16.4584,"ARG_OF_PERICENTER":85.351,"MEAN_ANOMALY":274.7813,"EPHEMERIS_TYPE":0,"CLASSIFICATION_TYPE":"U","NORAD_CAT_ID":47278,"ELEMENT_SET_NO":999,"REV_AT_EPOCH":24754,"BSTAR":0.00096449535,"MEAN_MOTION_DOT":3.6e-6,"MEAN_MOTION_DDOT":0},{"OBJECT_NAME":"ONEWEB-0133","OBJECT_ID":"2020-100X","EPOCH":"2026-02-06T22:37:35.069664","MEAN_MOTION":13.12441847,"ECCENTRICITY":0.0001637,"INCLINATION":87.8958,"RA_OF_ASC_NODE":16.493,"ARG_OF_PERICENTER":84.0018,"MEAN_ANOMALY":276.1297,"EPHEMERIS_TYPE":0,"CLASSIFICATION_TYPE":"U","NORAD_CAT_ID":47279,"ELEMENT_SET_NO":999,"REV_AT_EPOCH":24765,"BSTAR":7.733e-5,"MEAN_MOTION_DOT":4.1e-7,"MEAN_MOTION_DDOT":0},{"OBJECT_NAME":"ONEWEB-0134","OBJECT_ID":"2020-100Y","EPOCH":"2026-02-07T07:02:47.306976","MEAN_MOTION":13.1244326,"ECCENTRICITY":0.000164,"INCLINATION":87.8957,"RA_OF_ASC_NODE":16.4199,"ARG_OF_PERICENTER":91.0831,"MEAN_ANOMALY":269.0486,"EPHEMERIS_TYPE":0,"CLASSIFICATION_TYPE":"U","NORAD_CAT_ID":47280,"ELEMENT_SET_NO":999,"REV_AT_EPOCH":24767,"BSTAR":0.00037606255,"MEAN_MOTION_DOT":1.48e-6,"MEAN_MOTION_DDOT":0},{"OBJECT_NAME":"ONEWEB-0135","OBJECT_ID":"2020-100Z","EPOCH":"2026-02-06T23:02:10.735872","MEAN_MOTION":13.12443459,"ECCENTRICITY":0.0001533,"INCLINATION":87.8954,"RA_OF_ASC_NODE":16.5249,"ARG_OF_PERICENTER":92.1863,"MEAN_ANOMALY":267.9441,"EPHEMERIS_TYPE":0,"CLASSIFICATION_TYPE":"U","NORAD_CAT_ID":47281,"ELEMENT_SET_NO":999,"REV_AT_EPOCH":24765,"BSTAR":-0.0012158,"MEAN_MOTION_DOT":-4.25e-6,"MEAN_MOTION_DDOT":0},{"OBJECT_NAME":"ONEWEB-0136","OBJECT_ID":"2020-100AA","EPOCH":"2026-02-06T23:29:00.678912","MEAN_MOTION":13.12445307,"ECCENTRICITY":0.0001668,"INCLINATION":87.8961,"RA_OF_ASC_NODE":16.4925,"ARG_OF_PERICENTER":97.6797,"MEAN_ANOMALY":262.4521,"EPHEMERIS_TYPE":0,"CLASSIFICATION_TYPE":"U","NORAD_CAT_ID":47282,"ELEMENT_SET_NO":999,"REV_AT_EPOCH":24758,"BSTAR":-0.00036176,"MEAN_MOTION_DOT":-1.17e-6,"MEAN_MOTION_DDOT":0},{"OBJECT_NAME":"ONEWEB-0137","OBJECT_ID":"2020-100AB","EPOCH":"2026-02-06T22:28:02.082144","MEAN_MOTION":13.12441766,"ECCENTRICITY":0.0001926,"INCLINATION":87.8956,"RA_OF_ASC_NODE":16.5056,"ARG_OF_PERICENTER":83.0258,"MEAN_ANOMALY":277.109,"EPHEMERIS_TYPE":0,"CLASSIFICATION_TYPE":"U","NORAD_CAT_ID":47283,"ELEMENT_SET_NO":999,"REV_AT_EPOCH":24748,"BSTAR":0.00061628,"MEAN_MOTION_DOT":2.34e-6,"MEAN_MOTION_DDOT":0},{"OBJECT_NAME":"ONEWEB-0138","OBJECT_ID":"2020-100AC","EPOCH":"2026-02-07T07:05:13.272864","MEAN_MOTION":13.1244333,"ECCENTRICITY":0.00017482,"INCLINATION":87.8956,"RA_OF_ASC_NODE":16.4434,"ARG_OF_PERICENTER":90.8898,"MEAN_ANOMALY":269.2431,"EPHEMERIS_TYPE":0,"CLASSIFICATION_TYPE":"U","NORAD_CAT_ID":47284,"ELEMENT_SET_NO":999,"REV_AT_EPOCH":24761,"BSTAR":0.00066360799,"MEAN_MOTION_DOT":2.51e-6,"MEAN_MOTION_DDOT":0},{"OBJECT_NAME":"ONEWEB-0139","OBJECT_ID":"2020-100AD","EPOCH":"2026-02-06T22:55:03.369504","MEAN_MOTION":13.12442715,"ECCENTRICITY":0.0001802,"INCLINATION":87.8952,"RA_OF_ASC_NODE":16.4985,"ARG_OF_PERICENTER":85.7609,"MEAN_ANOMALY":274.3726,"EPHEMERIS_TYPE":0,"CLASSIFICATION_TYPE":"U","NORAD_CAT_ID":47285,"ELEMENT_SET_NO":999,"REV_AT_EPOCH":24764,"BSTAR":-0.00091209,"MEAN_MOTION_DOT":-3.15e-6,"MEAN_MOTION_DDOT":0},{"OBJECT_NAME":"ONEWEB-0140","OBJECT_ID":"2020-100AE","EPOCH":"2026-02-07T06:57:54.403200","MEAN_MOTION":13.12443735,"ECCENTRICITY":0.000163,"INCLINATION":87.8958,"RA_OF_ASC_NODE":16.4204,"ARG_OF_PERICENTER":81.434,"MEAN_ANOMALY":278.6973,"EPHEMERIS_TYPE":0,"CLASSIFICATION_TYPE":"U","NORAD_CAT_ID":47286,"ELEMENT_SET_NO":999,"REV_AT_EPOCH":24765,"BSTAR":0.00017677889,"MEAN_MOTION_DOT":7.6e-7,"MEAN_MOTION_DDOT":0},{"OBJECT_NAME":"ONEWEB-0141","OBJECT_ID":"2020-100AF","EPOCH":"2026-02-06T22:54:39.227616","MEAN_MOTION":13.12443041,"ECCENTRICITY":0.0002113,"INCLINATION":87.8954,"RA_OF_ASC_NODE":16.4941,"ARG_OF_PERICENTER":82.1653,"MEAN_ANOMALY":277.9715,"EPHEMERIS_TYPE":0,"CLASSIFICATION_TYPE":"U","NORAD_CAT_ID":47287,"ELEMENT_SET_NO":999,"REV_AT_EPOCH":24759,"BSTAR":-0.00095945,"MEAN_MOTION_DOT":-3.32e-6,"MEAN_MOTION_DDOT":0}]
